SWISSCUBE               
1 35932U 09051B   26171.17902305  .00000711  00000+0  15003-3 0  9991
2 35932  98.4033  79.1195 0006171 192.6984 167.4062 14.62486325889593
BEESAT-1                
1 35933U 09051C   26170.71084495  .00000603  00000+0  13077-3 0  9991
2 35933  98.3961  78.2733 0004371 207.4388 152.6582 14.61723870889551
ITUPSAT1                
1 35935U 09051E   26171.25204671  .00000541  00000+0  12172-3 0  9999
2 35935  98.4046  78.0115 0006403 222.9093 137.1608 14.60444493889189
XIWANG-1 (HOPE-1)       
1 36122U 09072B   26172.49983234 -.00000340  00000+0 -77539-3 0  9994
2 36122 100.4031 126.2633 0006978 220.7074 139.3518 13.16438347793571
O/OREOS (USA 219)       
1 37224U 10062C   26171.14280665  .00001640  00000+0  16050-3 0  9991
2 37224  71.9702  73.6446 0012657  56.8090 303.4293 14.93754530117087
JUGNU                   
1 37839U 11058B   26171.47379505  .00000387  00000+0  62780-4 0  9996
2 37839  19.9612 288.4626 0018614 112.2842 315.8284 14.13777522759490
SRMSAT                  
1 37841U 11058D   26171.35085059  .00000352  00000+0  47312-4 0  9990
2 37841  19.9729  40.3181 0011727 238.5935 283.9086 14.11576136758261
STRAND-1                
1 39090U 13009E   26171.39785274  .00000190  00000+0  78154-4 0  9994
2 39090  98.3923 351.5531 0007895 214.6818 145.3855 14.37164728697522
ZACUBE-1 (TSHEPISOSAT)  
1 39417U 13066B   26171.40676969  .00002330  00000+0  18337-3 0  9996
2 39417  97.8070 133.7603 0041215 236.5821 123.1458 15.01203183681216
GOMX-1                  
1 39430U 13066Q   26172.54391017  .00001498  00000+0  22955-3 0  9990
2 39430  97.6481  12.7311 0130030  63.7574 297.6930 14.69473415670553
CUBEBUG-2 (LO-74)       
1 39440U 13066AA  26171.34547412  .00004187  00000+0  38759-3 0  9997
2 39440  97.8908 120.3368 0058172  18.8863 341.4496 14.93786433677462
FUNCUBE-1 (AO-73)       
1 39444U 13066AE  26171.43726984  .00004737  00000+0  29523-3 0  9994
2 39444  97.8276 142.9507 0035961 189.5491 170.5058 15.09520967680154
UWE-3                   
1 39446U 13066AG  26171.42396227  .00003773  00000+0  32554-3 0  9995
2 39446  97.8702 127.5192 0047200 310.2944  49.4156 14.97047513678061
UNISAT-6                
1 40012U 14033C   26171.36053183  .00002275  00000+0  24761-3 0  9992
2 40012  97.7886 324.0163 0046103  59.1479 301.4261 14.88258832646633
DUCHIFAT-1              
1 40021U 14033M   26171.41075191  .00097960  00000+0  98362-3 0  9994
2 40021  98.0451 231.0257 0002464 112.8705 247.2812 15.65166086656250
QB50P1                  
1 40025U 14033R   26171.31353525  .00007093  00000+0  34929-3 0  9994
2 40025  98.0964 182.6784 0008083 203.9686 156.1171 15.18299167653508
LILACSAT-2              
1 40908U 15049K   26172.52898664  .00014906  00000+0  25303-3 0  9991
2 40908  97.4642 209.5359 0005819 224.7343 135.3440 15.51567178596428
FOX-1A (AO-85)          
1 40967U 15058D   26171.43798106  .00001657  00000+0  15762-3 0  9992
2 40967  64.7745 268.8811 0130605  55.3496 305.9846 14.90981421114057
CAS-2T & KS-1Q          
1 41847U 16066G   26171.21882669  .00001296  00000+0  18865-3 0  9990
2 41847  98.3821 246.9206 0342870 120.3110 243.2471 14.44702954505236
RADFXSAT (FOX-1B)       
1 43017U 17073E   26171.18457471  .00006691  00000+0  29340-3 0  9999
2 43017  97.4696  38.3374 0149318 318.7924  40.2110 15.12753215465843
DIWATA-2B               
1 43678U 18084H   26172.50455841  .00001869  00000+0  15345-3 0  9993
2 43678  98.1194   8.9000 0012857 156.4767 203.7046 15.00468688416861
ES'HAIL 2               
1 43700U 18090A   26171.32582803  .00000139  00000+0  00000+0 0  9991
2 43700   0.0162  58.1464 0001829  66.6264 286.8419  1.00272471 27701
FOX-1CLIFF (AO-95)      
1 43770U 18099N   26171.42028350  .00009032  00000+0  34569-3 0  9992
2 43770  97.4379 231.6550 0007644 345.3894  14.7122 15.26768122413714
ITASAT                  
1 43786U 18099AE  26171.11764083  .00005183  00000+0  24987-3 0  9991
2 43786  97.4025 222.5709 0011788 349.8108  10.2885 15.19087166413356
JY1SAT (JO-97)          
1 43803U 18099AX  26171.42320771  .00014139  00000+0  43536-3 0  9999
2 43803  97.4124 234.2689 0004531 246.7819 113.2947 15.33738605414121
UWE-4                   
1 43880U 18111E   26170.73909040  .00028000  00000+0  56934-3 0  9992
2 43880  97.5852  99.2477 0005067 330.7950  29.3015 15.46259003411173
TIANYAN 01              
1 44881U 19093C   26172.48737692  .00000833  00000+0  10000-3 0  9998
2 44881  97.7524 244.6147 0015031  74.5409 285.7466 14.86525068352056
RS-44 & BREEZE-KM R/B   
1 44909U 19096E   26171.44517356  .00000024  00000+0  45367-4 0  9997
2 44909  82.5221 337.5395 0218289 136.5763 225.2766 12.79748893302760
SALSAT                  
1 46495U 20068K   26170.95810387  .00006379  00000+0  22355-3 0  9995
2 46495  97.8854 174.1914 0007892 296.5001  63.5428 15.29832652315782
XW-3 (CAS-9)            
1 50466U 21131B   26172.49743442  .00000355  00000+0  12318-3 0  9994
2 50466  98.4980 264.8640 0005385  87.0874 273.0931 14.41360770235734
GREENCUBE (IO-117)      
1 53109U 22080E   26171.29702633 -.00000003  00000+0  00000+0 0  9991
2 53109  70.1444 297.1634 0008923 288.8810  71.0882  6.42583222 92268
UMKA 1 (RS40S)          
1 57172U 23091G   26171.38369249  .00005161  00000+0  23636-3 0  9993
2 57172  97.5046 230.0688 0014343 107.7929 252.4872 15.20848788164497
CUBESX-HSE 3 (RS42S)    
1 57178U 23091N   26171.44125536  .00011017  00000+0  36631-3 0  9991
2 57178  97.5086 237.0698 0011948  84.7993 275.4611 15.31283284164928
MONITOR-3 (RS58S)       
1 57180U 23091Q   26171.40744497  .00008680  00000+0  32073-3 0  9991
2 57180  97.5078 234.8773 0013041  90.9319 269.3415 15.27895465164781
MONITOR-4 (RS57S)       
1 57182U 23091S   26171.45181046  .00008870  00000+0  32683-3 0  9991
2 57182  97.5073 234.8934 0013052  91.1607 269.1128 15.27982067164797
MONITOR-2 (RS39S)       
1 57184U 23091U   26171.40896110  .00003706  00000+0  18040-3 0  9997
2 57184  97.5068 229.6713 0012781 101.4051 258.8619 15.18935296164440
SVYATOBOR 1 (RS60S)     
1 57187U 23091X   26171.40216926  .00007736  00000+0  29726-3 0  9991
2 57187  97.5084 235.2372 0010816  84.9279 275.3193 15.26660865164806
VIZARD-METEO (RS38S)    
1 57189U 23091Z   26171.46992765  .00014554  00000+0  41535-3 0  9999
2 57189  97.5086 241.0213 0008064  68.0251 292.1849 15.36113853165193
POLYTECH-UNIVERSE 3 (R*)
1 57191U 23091AB  26171.43573612  .00004400  00000+0  21198-3 0  9997
2 57191  97.5043 229.2023 0017010 116.4826 243.8155 15.19138885164446
UTMN 2 (RS27S)          
1 57203U 23091AP  26171.45706625  .00010973  00000+0  35586-3 0  9993
2 57203  97.5082 238.7236 0009091  74.0952 286.1291 15.32118609165048
KUZGTU 1 (RS47S)        
1 57217U 23091AV  26171.43523323  .00009496  00000+0  32966-3 0  9995
2 57217  97.5059 235.9484 0012235  88.0892 272.1750 15.29921794164871
SONATE-2                
1 59112U 24043Q   26171.41218347  .00036201  00000+0  46629-3 0  9999
2 59112  97.5542 322.0062 0007216 184.8807 175.2380 15.58929844128393
MESAT1                  
1 60209U 24125G   26171.05066676  .00049535  00000+0  53419-3 0  9994
2 60209  97.2284  28.5983 0009832 192.9282 167.1727 15.63472773110010
OOV-CUBE (TUBSAT-30)    
1 60240U 24128F   26171.44894970  .00001277  00000+0  10887-3 0  9994
2 60240  61.9929 214.1994 0044227 134.4761 225.9960 15.02783719106604
COLIBRI-S (RS67S)       
1 61746U 24199M   26171.42368146  .00018492  00000+0  35702-3 0  9993
2 61746  97.2989  45.3069 0006297 262.7085  97.3450 15.47837273137917
HORS 3 (RS81S)          
1 61753U 24199U   26171.43560999  .00031554  00000+0  46807-3 0  9994
2 61753  97.2969  47.3410 0003799 258.6901 101.3927 15.55165366138068
HORS 4 (RS82S)          
1 61754U 24199V   26171.45049354  .00043608  00000+0  54030-3 0  9994
2 61754  97.2915  48.5786 0003432 238.4602 121.6320 15.59942914138155
SIT-2086                
1 61764U 24199AF  26171.41780133  .00031504  00000+0  50030-3 0  9996
2 61764  97.2928  47.7879 0004905 234.4674 125.6123 15.53279196134931
HYPERVIEW 1G (RS66S)    
1 61772U 24199AP  26171.11001400  .00125192  00000+0  78003-3 0  9992
2 61772  97.2851  50.9798 0004715 207.8229 152.2786 15.76549631135133
ALTAIR (RS65S)          
1 61779U 24199AW  26171.43221843  .00007443  00000+0  20710-3 0  9999
2 61779  97.3024  40.7613 0010884 297.7686  62.2454 15.37065018137611
ASRTU-1 (AO-123)        
1 61781U 24199AY  26171.42296523  .00006434  00000+0  18716-3 0  9990
2 61781  97.2995  40.0642 0012089 300.9779  59.0277 15.35714948134428
SAMSAT-IONOSPHERE (RS7*)
1 61784U 24199BB  26171.39980315  .00041170  00000+0  55142-3 0  9998
2 61784  97.2937  47.3627 0005975 259.6998 100.3584 15.57868475138063
RTU MIREA 1 (RS51S)     
1 61785U 24199BC  26171.41703499  .00049518  00000+0  57966-3 0  9998
2 61785  97.2926  48.2288 0005765 250.5796 109.4839 15.61392673134974
TEVEL2-4                
1 63213U 25052D   26171.44236345  .00016057  00000+0  47906-3 0  9994
2 63213  97.3895  67.8392 0004959  96.9497 263.2310 15.34707854 70619
TEVEL2-5                
1 63214U 25052E   26171.26760575  .00015978  00000+0  47945-3 0  9996
2 63214  97.3892  67.6107 0004895  98.9294 261.2503 15.34527610 70583
TEVEL2-6                
1 63215U 25052F   26171.28000723  .00015976  00000+0  47994-3 0  9993
2 63215  97.3898  67.6078 0004759  99.4633 260.7149 15.34492782 70580
TEVEL2-1                
1 63217U 25052H   26171.17964496  .00015594  00000+0  47659-3 0  9993
2 63217  97.3873  67.1285 0004873 107.5627 252.6148 15.33952529 70556
TEVEL2-3                
1 63218U 25052J   26171.43510259  .00015215  00000+0  46415-3 0  9996
2 63218  97.3872  67.4058 0004851 107.4306 252.7467 15.34015837 70598
TEVEL2-2                
1 63219U 25052K   26171.44087273  .00015148  00000+0  46281-3 0  9999
2 63219  97.3872  67.3917 0004899 108.0209 252.1568 15.33968526 70590
